[{"OBJECT_NAME":"STARLINK-35351","OBJECT_ID":"2025-211S","EPOCH":"2026-03-09T16:20:15.632736","MEAN_MOTION":15.05631723,"ECCENTRICITY":0.00015109,"INCLINATION":97.6038,"RA_OF_ASC_NODE":114.1056,"ARG_OF_PERICENTER":99.7141,"MEAN_ANOMALY":260.4256,"EPHEMERIS_TYPE":0,"CLASSIFICATION_TYPE":"U","NORAD_CAT_ID":65668,"ELEMENT_SET_NO":999,"REV_AT_EPOCH":2704,"BSTAR":-0.00011469674,"MEAN_MOTION_DOT":-1.715e-5,"MEAN_MOTION_DDOT":0},{"OBJECT_NAME":"CZ-6A DEB","OBJECT_ID":"2024-140AAU","EPOCH":"2026-03-09T16:48:50.985504","MEAN_MOTION":14.99127941,"ECCENTRICITY":0.00591225,"INCLINATION":89.196,"RA_OF_ASC_NODE":296.0099,"ARG_OF_PERICENTER":104.8686,"MEAN_ANOMALY":255.9106,"EPHEMERIS_TYPE":0,"CLASSIFICATION_TYPE":"U","NORAD_CAT_ID":61486,"ELEMENT_SET_NO":999,"REV_AT_EPOCH":8015,"BSTAR":0.0049724997,"MEAN_MOTION_DOT":0.00063139,"MEAN_MOTION_DDOT":0}]
